{"type": "FeatureCollection", "features": [ {"type": "Feature", "properties": {"norad_id": 60989, "name": "SENTINEL-2C", "group": "resource", "lat": -3.000616817791542, "lon": -108.85994553068149, "alt_km": 792.156004538464, "timestamp": "2025-12-25T07:00:33.700598+00:00", "meta": {"OBJECT_NAME": "SENTINEL-2C", "OBJECT_ID": "2024-157A", "EPOCH": "2025-12-24T20:05:14.530272", "MEAN_MOTION": 14.30817119, "ECCENTRICITY": 0.0001393, "INCLINATION": 98.5667, "RA_OF_ASC_NODE": 71.1444, "ARG_OF_PERICENTER": 103.542, "MEAN_ANOMALY": 256.5918, "EPHEMERIS_TYPE": 0, "CLASSIFICATION_TYPE": "U", "NORAD_CAT_ID": 60989, "ELEMENT_SET_NO": 999, "REV_AT_EPOCH": 6805, "BSTAR": 7.2468e-05, "MEAN_MOTION_DOT": 1.46e-06, "MEAN_MOTION_DDOT": 0}, "tle": {"line1": "1 60989U 24157A   25358.83697373  .00000146  00000+0  72468-4 0  9991", "line2": "2 60989  98.5667  71.1444 0001393 103.5420 256.5918 14.30817119 68057"}}, "geometry": {"type": "Point", "coordinates": [-108.85994553068149, -3.000616817791542]}}, {"type": "Feature", "properties": {"norad_id": 61735, "name": "IONOSFERA-M 1", "group": "resource", "lat": 79.27572705896671, "lon": 174.7233314648365, "alt_km": 808.7464274027561, "timestamp": "2025-12-25T07:00:33.700610+00:00", "meta": {"OBJECT_NAME": "IONOSFERA-M 1", "OBJECT_ID": "2024-199A", "EPOCH": "2025-12-24T22:10:40.069632", "MEAN_MOTION": 14.22716657, "ECCENTRICITY": 3.572e-05, "INCLINATION": 98.7403, "RA_OF_ASC_NODE": 228.6783, "ARG_OF_PERICENTER": 5.9216, "MEAN_ANOMALY": 354.1967, "EPHEMERIS_TYPE": 0, "CLASSIFICATION_TYPE": "U", "NORAD_CAT_ID": 61735, "ELEMENT_SET_NO": 999, "REV_AT_EPOCH": 10292, "BSTAR": 4.8524661e-05, "MEAN_MOTION_DOT": 6.4e-07, "MEAN_MOTION_DDOT": 0}, "tle": {"line1": "1 61735U 24199A   25358.92407488  .00000064  00000+0  48525-4 0  9999", "line2": "2 61735  98.7403 228.6783 0000357   5.9216 354.1967 14.22716657102929"}}, "geometry": {"type": "Point", "coordinates": [174.7233314648365, 79.27572705896671]}}, {"type": "Feature", "properties": {"norad_id": 61736, "name": "IONOSFERA-M 2", "group": "resource", "lat": -80.60353229150417, "lon": -19.40745498190318, "alt_km": 824.8247905622957, "timestamp": "2025-12-25T07:00:33.700621+00:00", "meta": {"OBJECT_NAME": "IONOSFERA-M 2", "OBJECT_ID": "2024-199B", "EPOCH": "2025-12-24T23:00:32.010048", "MEAN_MOTION": 14.22718842, "ECCENTRICITY": 0.00018571, "INCLINATION": 98.7395, "RA_OF_ASC_NODE": 228.625, "ARG_OF_PERICENTER": 94.7716, "MEAN_ANOMALY": 265.3674, "EPHEMERIS_TYPE": 0, "CLASSIFICATION_TYPE": "U", "NORAD_CAT_ID": 61736, "ELEMENT_SET_NO": 999, "REV_AT_EPOCH": 10605, "BSTAR": 4.6956515e-05, "MEAN_MOTION_DOT": 6.1e-07, "MEAN_MOTION_DDOT": 0}, "tle": {"line1": "1 61736U 24199B   25358.95870382  .00000061  00000+0  46957-4 0  9994", "line2": "2 61736  98.7395 228.6250 0001857  94.7716 265.3674 14.22718842106050"}}, "geometry": {"type": "Point", "coordinates": [-19.40745498190318, -80.60353229150417]}}, {"type": "Feature", "properties": {"norad_id": 63772, "name": "BIOMASS", "group": "resource", "lat": -39.02534795057389, "lon": -169.2781784344584, "alt_km": 675.803639761838, "timestamp": "2025-12-25T07:00:33.700631+00:00", "meta": {"OBJECT_NAME": "BIOMASS", "OBJECT_ID": "2025-090A", "EPOCH": "2025-12-24T18:05:52.747872", "MEAN_MOTION": 14.67536543, "ECCENTRICITY": 0.00010458, "INCLINATION": 98.0696, "RA_OF_ASC_NODE": 183.5888, "ARG_OF_PERICENTER": 84.267, "MEAN_ANOMALY": 275.8654, "EPHEMERIS_TYPE": 0, "CLASSIFICATION_TYPE": "U", "NORAD_CAT_ID": 63772, "ELEMENT_SET_NO": 999, "REV_AT_EPOCH": 3510, "BSTAR": 0.00022216926, "MEAN_MOTION_DOT": 1.212e-05, "MEAN_MOTION_DDOT": 0}, "tle": {"line1": "1 63772U 25090A   25358.75408273  .00001212  00000+0  22217-3 0  9992", "line2": "2 63772  98.0696 183.5888 0001045  84.2670 275.8654 14.67536543 35103"}}, "geometry": {"type": "Point", "coordinates": [-169.2781784344584, -39.02534795057389]}}, {"type": "Feature", "properties": {"norad_id": 64694, "name": "GOSAT-GW (IBUKI GW)", "group": "resource", "lat": 8.492442059161592, "lon": 115.7882955837515, "alt_km": 670.69720780032, "timestamp": "2025-12-25T07:00:33.700641+00:00", "meta": {"OBJECT_NAME": "GOSAT-GW (IBUKI GW)", "OBJECT_ID": "2025-141A", "EPOCH": "2025-12-24T22:02:58.760160", "MEAN_MOTION": 14.67558979, "ECCENTRICITY": 0.0001437, "INCLINATION": 98.0439, "RA_OF_ASC_NODE": 294.2118, "ARG_OF_PERICENTER": 82.4259, "MEAN_ANOMALY": 277.7109, "EPHEMERIS_TYPE": 0, "CLASSIFICATION_TYPE": "U", "NORAD_CAT_ID": 64694, "ELEMENT_SET_NO": 999, "REV_AT_EPOCH": 2628, "BSTAR": 0.00019399347, "MEAN_MOTION_DOT": 1.053e-05, "MEAN_MOTION_DDOT": 0}, "tle": {"line1": "1 64694U 25141A   25358.91873565  .00001053  00000+0  19399-3 0  9991", "line2": "2 64694  98.0439 294.2118 0001437  82.4259 277.7109 14.67558979 26288"}}, "geometry": {"type": "Point", "coordinates": [115.7882955837515, 8.492442059161592]}}, {"type": "Feature", "properties": {"norad_id": 64876, "name": "IONOSFERA-M 3", "group": "resource", "lat": -71.1075553255451, "lon": 114.62649623897286, "alt_km": 828.8476589899801, "timestamp": "2025-12-25T07:00:33.700652+00:00", "meta": {"OBJECT_NAME": "IONOSFERA-M 3", "OBJECT_ID": "2025-155A", "EPOCH": "2025-12-24T23:03:53.330688", "MEAN_MOTION": 14.2144392, "ECCENTRICITY": 0.00018496, "INCLINATION": 98.58, "RA_OF_ASC_NODE": 320.4822, "ARG_OF_PERICENTER": 40.2291, "MEAN_ANOMALY": 319.9024, "EPHEMERIS_TYPE": 0, "CLASSIFICATION_TYPE": "U", "NORAD_CAT_ID": 64876, "ELEMENT_SET_NO": 999, "REV_AT_EPOCH": 2165, "BSTAR": 5.5377291e-05, "MEAN_MOTION_DOT": 7.8e-07, "MEAN_MOTION_DDOT": 0}, "tle": {"line1": "1 64876U 25155A   25358.96103392  .00000078  00000+0  55377-4 0  9990", "line2": "2 64876  98.5800 320.4822 0001849  40.2291 319.9024 14.21443920 21656"}}, "geometry": {"type": "Point", "coordinates": [114.62649623897286, -71.1075553255451]}}, {"type": "Feature", "properties": {"norad_id": 64877, "name": "IONOSFERA-M 4", "group": "resource", "lat": 71.68937665798018, "lon": -66.42074459152818, "alt_km": 812.6852634135676, "timestamp": "2025-12-25T07:00:33.700662+00:00", "meta": {"OBJECT_NAME": "IONOSFERA-M 4", "OBJECT_ID": "2025-155B", "EPOCH": "2025-12-24T23:54:22.235616", "MEAN_MOTION": 14.21445093, "ECCENTRICITY": 0.00012811, "INCLINATION": 98.5801, "RA_OF_ASC_NODE": 320.4356, "ARG_OF_PERICENTER": 51.7221, "MEAN_ANOMALY": 308.4072, "EPHEMERIS_TYPE": 0, "CLASSIFICATION_TYPE": "U", "NORAD_CAT_ID": 64877, "ELEMENT_SET_NO": 999, "REV_AT_EPOCH": 2165, "BSTAR": 6.2062411e-05, "MEAN_MOTION_DOT": 9.3e-07, "MEAN_MOTION_DDOT": 0}, "tle": {"line1": "1 64877U 25155B   25358.99609069  .00000093  00000+0  62062-4 0  9992", "line2": "2 64877  98.5801 320.4356 0001281  51.7221 308.4072 14.21445093 21659"}}, "geometry": {"type": "Point", "coordinates": [-66.42074459152818, 71.68937665798018]}}, {"type": "Feature", "properties": {"norad_id": 64899, "name": "MICROCARB", "group": "resource", "lat": -7.996981550041537, "lon": 75.56765592487058, "alt_km": 663.6558496297266, "timestamp": "2025-12-25T07:00:33.700672+00:00", "meta": {"OBJECT_NAME": "MICROCARB", "OBJECT_ID": "2025-156A", "EPOCH": "2025-12-24T17:59:43.152864", "MEAN_MOTION": 14.72075752, "ECCENTRICITY": 0.00176333, "INCLINATION": 98.001, "RA_OF_ASC_NODE": 73.902, "ARG_OF_PERICENTER": 108.7626, "MEAN_ANOMALY": 251.5496, "EPHEMERIS_TYPE": 0, "CLASSIFICATION_TYPE": "U", "NORAD_CAT_ID": 64899, "ELEMENT_SET_NO": 999, "REV_AT_EPOCH": 2230, "BSTAR": 0.00011833777, "MEAN_MOTION_DOT": 6.96e-06, "MEAN_MOTION_DDOT": 0}, "tle": {"line1": "1 64899U 25156A   25358.74980501  .00000696  00000+0  11834-3 0  9992", "line2": "2 64899  98.0010  73.9020 0017633 108.7626 251.5496 14.72075752 22306"}}, "geometry": {"type": "Point", "coordinates": [75.56765592487058, -7.996981550041537]}}, {"type": "Feature", "properties": {"norad_id": 64900, "name": "CO3D 3", "group": "resource", "lat": 44.55618279949956, "lon": 68.092721011677, "alt_km": 500.6518765095552, "timestamp": "2025-12-25T07:00:33.700682+00:00", "meta": {"OBJECT_NAME": "CO3D 3", "OBJECT_ID": "2025-156B", "EPOCH": "2025-12-24T22:54:47.501280", "MEAN_MOTION": 15.20194383, "ECCENTRICITY": 0.00013696, "INCLINATION": 97.4336, "RA_OF_ASC_NODE": 75.1465, "ARG_OF_PERICENTER": 70.9391, "MEAN_ANOMALY": 289.1993, "EPHEMERIS_TYPE": 0, "CLASSIFICATION_TYPE": "U", "NORAD_CAT_ID": 64900, "ELEMENT_SET_NO": 999, "REV_AT_EPOCH": 2306, "BSTAR": 0.00030942596, "MEAN_MOTION_DOT": 6.635e-05, "MEAN_MOTION_DDOT": 0}, "tle": {"line1": "1 64900U 25156B   25358.95471645  .00006635  00000+0  30943-3 0  9993", "line2": "2 64900  97.4336  75.1465 0001369  70.9391 289.1993 15.20194383 23067"}}, "geometry": {"type": "Point", "coordinates": [68.092721011677, 44.55618279949956]}}, {"type": "Feature", "properties": {"norad_id": 64901, "name": "CO3D 4", "group": "resource", "lat": 43.78492336551704, "lon": 68.29032248164067, "alt_km": 501.9332982078113, "timestamp": "2025-12-25T07:00:33.700693+00:00", "meta": {"OBJECT_NAME": "CO3D 4", "OBJECT_ID": "2025-156C", "EPOCH": "2025-12-24T22:55:00.106176", "MEAN_MOTION": 15.20221822, "ECCENTRICITY": 0.00014787, "INCLINATION": 97.4335, "RA_OF_ASC_NODE": 75.1468, "ARG_OF_PERICENTER": 157.9267, "MEAN_ANOMALY": 202.2032, "EPHEMERIS_TYPE": 0, "CLASSIFICATION_TYPE": "U", "NORAD_CAT_ID": 64901, "ELEMENT_SET_NO": 999, "REV_AT_EPOCH": 2306, "BSTAR": 0.00022985261, "MEAN_MOTION_DOT": 4.914e-05, "MEAN_MOTION_DDOT": 0}, "tle": {"line1": "1 64901U 25156C   25358.95486234  .00004914  00000+0  22985-3 0  9999", "line2": "2 64901  97.4335  75.1468 0001478 157.9267 202.2032 15.20221822 23068"}}, "geometry": {"type": "Point", "coordinates": [68.29032248164067, 43.78492336551704]}}]}